[{"OBJECT_NAME":"STARLINK-31266","OBJECT_ID":"2024-041P","EPOCH":"2026-03-09T00:53:58.589088","MEAN_MOTION":15.27591409,"ECCENTRICITY":3.063e-5,"INCLINATION":42.9975,"RA_OF_ASC_NODE":314.2272,"ARG_OF_PERICENTER":17.3505,"MEAN_ANOMALY":342.7357,"EPHEMERIS_TYPE":0,"CLASSIFICATION_TYPE":"U","NORAD_CAT_ID":59087,"ELEMENT_SET_NO":999,"REV_AT_EPOCH":11422,"BSTAR":0.00010287067,"MEAN_MOTION_DOT":2.571e-5,"MEAN_MOTION_DDOT":0},{"OBJECT_NAME":"FLOCK 4G-34","OBJECT_ID":"2025-009AT","EPOCH":"2026-03-09T17:34:06.952224","MEAN_MOTION":15.27131464,"ECCENTRICITY":6.743e-5,"INCLINATION":97.4004,"RA_OF_ASC_NODE":151.0149,"ARG_OF_PERICENTER":348.828,"MEAN_ANOMALY":11.2944,"EPHEMERIS_TYPE":0,"CLASSIFICATION_TYPE":"U","NORAD_CAT_ID":62650,"ELEMENT_SET_NO":999,"REV_AT_EPOCH":6372,"BSTAR":0.00049338357,"MEAN_MOTION_DOT":0.00013063,"MEAN_MOTION_DDOT":0}]
